start=new Date('2022-07-04T00:00:00.000Z').valueOf();
sats=[{"OBJECT_ID":"2022-022L","OBJECT_NAME":"STARLINK-3508","EPHEMERIS_TYPE":"0","CLASSIFICATION_TYPE":"U","REF_FRAME":"TEME","FILE":"3507292","TIME_SYSTEM":"UTC","ELEMENT_SET_NO":"999","TLE_LINE2":"2 51862  53.2160 286.0260 0001623  50.0199 298.2794 15.08855833  1302","RA_OF_ASC_NODE":"286.0260","REV_AT_EPOCH":"130","BSTAR":"-0.00570520000000","ECCENTRICITY":"0.00016230","OBJECT_TYPE":"PAYLOAD","SITE":"AFETR","PERIOD":"95.437","RCS_SIZE":"LARGE","MEAN_MOTION_DDOT":"0.0000000000000","DECAY_DATE":null,"LAUNCH_DATE":"2022-03-03","PERIAPSIS":"538.574","MEAN_MOTION_DOT":"-0.00089993","NORAD_CAT_ID":"51862","CENTER_NAME":"EARTH","SEMIMAJOR_AXIS":"6917.832","MEAN_ELEMENT_THEORY":"SGP4","EPOCH":"2022-07-03T22:00:00.999936","MEAN_MOTION":"15.08855833","APOAPSIS":"540.820","INCLINATION":"53.2160","MEAN_ANOMALY":"298.2794","COUNTRY_CODE":"US","ARG_OF_PERICENTER":"50.0199","GP_ID":"207359080","TLE_LINE1":"1 51862U 22022L   22184.91667824 -.00089993  00000-0 -57052-2 0  9991"},{"PERIAPSIS":"538.606","LAUNCH_DATE":"2022-03-03","DECAY_DATE":null,"RCS_SIZE":"LARGE","PERIOD":"95.438","MEAN_MOTION_DDOT":"0.0000000000000","SITE":"AFETR","OBJECT_TYPE":"PAYLOAD","ECCENTRICITY":"0.00016470","BSTAR":"-0.00310760000000","ELEMENT_SET_NO":"999","TLE_LINE2":"2 51863  53.2163 286.0461 0001647  44.6837  43.6154 15.08840015  1301","RA_OF_ASC_NODE":"286.0461","REV_AT_EPOCH":"130","TIME_SYSTEM":"UTC","FILE":"3507292","REF_FRAME":"TEME","CLASSIFICATION_TYPE":"U","EPHEMERIS_TYPE":"0","OBJECT_NAME":"STARLINK-3555","OBJECT_ID":"2022-022M","GP_ID":"207357844","TLE_LINE1":"1 51863U 22022M   22184.91667824 -.00049407  00000-0 -31076-2 0  9996","ARG_OF_PERICENTER":"44.6837","COUNTRY_CODE":"US","MEAN_ANOMALY":"43.6154","INCLINATION":"53.2163","APOAPSIS":"540.885","MEAN_MOTION":"15.08840015","EPOCH":"2022-07-03T22:00:00.999936","MEAN_ELEMENT_THEORY":"SGP4","SEMIMAJOR_AXIS":"6917.880","CENTER_NAME":"EARTH","NORAD_CAT_ID":"51863","MEAN_MOTION_DOT":"-0.00049407"},{"CENTER_NAME":"EARTH","NORAD_CAT_ID":"51864","MEAN_MOTION_DOT":"-0.00051402","APOAPSIS":"540.881","INCLINATION":"53.2133","EPOCH":"2022-07-03T22:00:00.999936","MEAN_MOTION":"15.08837798","SEMIMAJOR_AXIS":"6917.887","MEAN_ELEMENT_THEORY":"SGP4","COUNTRY_CODE":"US","ARG_OF_PERICENTER":"53.8645","MEAN_ANOMALY":"334.4424","TLE_LINE1":"1 51864U 22022N   22184.91667824 -.00051402  00000-0 -32349-2 0  9999","GP_ID":"207358595","FILE":"3507292","REF_FRAME":"TEME","CLASSIFICATION_TYPE":"U","OBJECT_NAME":"STARLINK-3548","EPHEMERIS_TYPE":"0","OBJECT_ID":"2022-022N","BSTAR":"-0.00323490000000","ECCENTRICITY":"0.00016320","RA_OF_ASC_NODE":"286.0358","TLE_LINE2":"2 51864  53.2133 286.0358 0001632  53.8645 334.4424 15.08837798  1302","REV_AT_EPOCH":"130","ELEMENT_SET_NO":"999","TIME_SYSTEM":"UTC","RCS_SIZE":"LARGE","MEAN_MOTION_DDOT":"0.0000000000000","PERIOD":"95.438","DECAY_DATE":null,"OBJECT_TYPE":"PAYLOAD","SITE":"AFETR","PERIAPSIS":"538.623","LAUNCH_DATE":"2022-03-03"},{"MEAN_MOTION_DOT":"-0.00057104","NORAD_CAT_ID":"51865","CENTER_NAME":"EARTH","MEAN_ELEMENT_THEORY":"SGP4","SEMIMAJOR_AXIS":"6917.853","MEAN_MOTION":"15.08848998","EPOCH":"2022-07-03T22:00:00.999936","INCLINATION":"53.2169","APOAPSIS":"540.845","MEAN_ANOMALY":"85.3534","ARG_OF_PERICENTER":"42.9259","COUNTRY_CODE":"US","TLE_LINE1":"1 51865U 22022P   22184.91667824 -.00057104  00000-0 -35976-2 0  9994","GP_ID":"207358843","EPHEMERIS_TYPE":"0","OBJECT_ID":"2022-022P","OBJECT_NAME":"STARLINK-3503","CLASSIFICATION_TYPE":"U","REF_FRAME":"TEME","FILE":"3507292","TIME_SYSTEM":"UTC","RA_OF_ASC_NODE":"286.0485","TLE_LINE2":"2 51865  53.2169 286.0485 0001629  42.9259  85.3534 15.08848998  1307","REV_AT_EPOCH":"130","ELEMENT_SET_NO":"999","ECCENTRICITY":"0.00016290","BSTAR":"-0.00359760000000","SITE":"AFETR","OBJECT_TYPE":"PAYLOAD","DECAY_DATE":null,"RCS_SIZE":"LARGE","PERIOD":"95.437","MEAN_MOTION_DDOT":"0.0000000000000","LAUNCH_DATE":"2022-03-03","PERIAPSIS":"538.591"},{"OBJECT_NAME":"STARLINK-3553","OBJECT_ID":"2022-022Q","EPHEMERIS_TYPE":"0","CLASSIFICATION_TYPE":"U","REF_FRAME":"TEME","FILE":"3507292","TIME_SYSTEM":"UTC","REV_AT_EPOCH":"130","TLE_LINE2":"2 51866  53.2153 286.0425 0001637  42.3562  25.9383 15.08838181  1300","RA_OF_ASC_NODE":"286.0425","ELEMENT_SET_NO":"999","ECCENTRICITY":"0.00016370","BSTAR":"-0.00243960000000","OBJECT_TYPE":"PAYLOAD","SITE":"AFETR","MEAN_MOTION_DDOT":"0.0000000000000","RCS_SIZE":"LARGE","PERIOD":"95.438","DECAY_DATE":null,"LAUNCH_DATE":"2022-03-03","PERIAPSIS":"538.618","MEAN_MOTION_DOT":"-0.00038903","NORAD_CAT_ID":"51866","CENTER_NAME":"EARTH","SEMIMAJOR_AXIS":"6917.886","MEAN_ELEMENT_THEORY":"SGP4","EPOCH":"2022-07-03T22:00:00.999936","MEAN_MOTION":"15.08838181","APOAPSIS":"540.883","INCLINATION":"53.2153","MEAN_ANOMALY":"25.9383","COUNTRY_CODE":"US","ARG_OF_PERICENTER":"42.3562","GP_ID":"207358581","TLE_LINE1":"1 51866U 22022Q   22184.91667824 -.00038903  00000-0 -24396-2 0  9995"},{"ELEMENT_SET_NO":"999","TLE_LINE2":"2 51867  53.2179 286.0525 0001851  42.4189 105.8910 15.08853440  1303","RA_OF_ASC_NODE":"286.0525","REV_AT_EPOCH":"130","BSTAR":"-0.00541490000000","ECCENTRICITY":"0.00018510","TIME_SYSTEM":"UTC","REF_FRAME":"TEME","FILE":"3507292","EPHEMERIS_TYPE":"0","OBJECT_ID":"2022-022R","OBJECT_NAME":"STARLINK-3590","CLASSIFICATION_TYPE":"U","PERIAPSIS":"538.424","LAUNCH_DATE":"2022-03-03","DECAY_DATE":null,"RCS_SIZE":"LARGE","MEAN_MOTION_DDOT":"0.0000000000000","PERIOD":"95.437","SITE":"AFETR","OBJECT_TYPE":"PAYLOAD","MEAN_MOTION":"15.08853440","EPOCH":"2022-07-03T22:00:00.999936","INCLINATION":"53.2179","APOAPSIS":"540.985","MEAN_ELEMENT_THEORY":"SGP4","SEMIMAJOR_AXIS":"6917.839","NORAD_CAT_ID":"51867","CENTER_NAME":"EARTH","MEAN_MOTION_DOT":"-0.00085478","GP_ID":"207357345","TLE_LINE1":"1 51867U 22022R   22184.91667824 -.00085478  00000-0 -54149-2 0  9994","ARG_OF_PERICENTER":"42.4189","COUNTRY_CODE":"US","MEAN_ANOMALY":"105.8910"},{"OBJECT_ID":"2022-022S","OBJECT_NAME":"STARLINK-3578","EPHEMERIS_TYPE":"0","CLASSIFICATION_TYPE":"U","REF_FRAME":"TEME","FILE":"3507292","TIME_SYSTEM":"UTC","RA_OF_ASC_NODE":"286.0483","TLE_LINE2":"2 51868  53.2170 286.0483 0001769  39.0839  69.2164 15.08838314  1307","ELEMENT_SET_NO":"999","REV_AT_EPOCH":"130","ECCENTRICITY":"0.00017690","BSTAR":"-0.00271570000000","OBJECT_TYPE":"PAYLOAD","SITE":"AFETR","MEAN_MOTION_DDOT":"0.0000000000000","RCS_SIZE":"LARGE","PERIOD":"95.438","DECAY_DATE":null,"LAUNCH_DATE":"2022-03-03","PERIAPSIS":"538.527","MEAN_MOTION_DOT":"-0.00043248","NORAD_CAT_ID":"51868","CENTER_NAME":"EARTH","SEMIMAJOR_AXIS":"6917.886","MEAN_ELEMENT_THEORY":"SGP4","EPOCH":"2022-07-03T22:00:00.999936","MEAN_MOTION":"15.08838314","APOAPSIS":"540.974","INCLINATION":"53.2170","MEAN_ANOMALY":"69.2164","COUNTRY_CODE":"US","ARG_OF_PERICENTER":"39.0839","TLE_LINE1":"1 51868U 22022S   22184.91667824 -.00043248  00000-0 -27157-2 0  9993","GP_ID":"207358096"},{"DECAY_DATE":null,"PERIOD":"95.438","RCS_SIZE":"LARGE","MEAN_MOTION_DDOT":"0.0000000000000","SITE":"AFETR","OBJECT_TYPE":"PAYLOAD","PERIAPSIS":"538.577","LAUNCH_DATE":"2022-03-03","FILE":"3507292","REF_FRAME":"TEME","CLASSIFICATION_TYPE":"U","OBJECT_NAME":"STARLINK-3588","OBJECT_ID":"2022-022T","EPHEMERIS_TYPE":"0","ECCENTRICITY":"0.00016930","BSTAR":"-0.00300980000000","TLE_LINE2":"2 51869  53.2187 286.0420 0001693  46.3459 161.9354 15.08839055  1306","ELEMENT_SET_NO":"999","RA_OF_ASC_NODE":"286.0420","REV_AT_EPOCH":"130","TIME_SYSTEM":"UTC","ARG_OF_PERICENTER":"46.3459","COUNTRY_CODE":"US","MEAN_ANOMALY":"161.9354","GP_ID":"207358344","TLE_LINE1":"1 51869U 22022T   22184.91667824 -.00047870  00000-0 -30098-2 0  9997","CENTER_NAME":"EARTH","NORAD_CAT_ID":"51869","MEAN_MOTION_DOT":"-0.00047870","INCLINATION":"53.2187","APOAPSIS":"540.919","MEAN_MOTION":"15.08839055","EPOCH":"2022-07-03T22:00:00.999936","MEAN_ELEMENT_THEORY":"SGP4","SEMIMAJOR_AXIS":"6917.883"},{"INCLINATION":"53.2177","APOAPSIS":"541.007","MEAN_MOTION":"15.08840385","EPOCH":"2022-07-03T22:00:00.999936","MEAN_ELEMENT_THEORY":"SGP4","SEMIMAJOR_AXIS":"6917.879","CENTER_NAME":"EARTH","NORAD_CAT_ID":"51870","MEAN_MOTION_DOT":"-0.00059279","TLE_LINE1":"1 51870U 22022U   22184.91667824 -.00059279  00000-0 -37373-2 0  9998","GP_ID":"207359081","ARG_OF_PERICENTER":"42.7902","COUNTRY_CODE":"US","MEAN_ANOMALY":"125.5302","BSTAR":"-0.00373730000000","ECCENTRICITY":"0.00018250","TLE_LINE2":"2 51870  53.2177 286.0520 0001825  42.7902 125.5302 15.08840385  1305","REV_AT_EPOCH":"130","ELEMENT_SET_NO":"999","RA_OF_ASC_NODE":"286.0520","TIME_SYSTEM":"UTC","FILE":"3507292","REF_FRAME":"TEME","CLASSIFICATION_TYPE":"U","OBJECT_NAME":"STARLINK-3591","OBJECT_ID":"2022-022U","EPHEMERIS_TYPE":"0","PERIAPSIS":"538.482","LAUNCH_DATE":"2022-03-03","DECAY_DATE":null,"MEAN_MOTION_DDOT":"0.0000000000000","RCS_SIZE":"LARGE","PERIOD":"95.438","SITE":"AFETR","OBJECT_TYPE":"PAYLOAD"},{"DECAY_DATE":null,"RCS_SIZE":"LARGE","PERIOD":"95.438","MEAN_MOTION_DDOT":"0.0000000000000","SITE":"AFETR","OBJECT_TYPE":"PAYLOAD","PERIAPSIS":"538.472","LAUNCH_DATE":"2022-03-03","REF_FRAME":"TEME","FILE":"3507292","EPHEMERIS_TYPE":"0","OBJECT_NAME":"STARLINK-3567","OBJECT_ID":"2022-022V","CLASSIFICATION_TYPE":"U","ELEMENT_SET_NO":"999","TLE_LINE2":"2 51871  53.2186 286.0400 0001852  36.4658 191.8247 15.08837384  1300","RA_OF_ASC_NODE":"286.0400","REV_AT_EPOCH":"130","ECCENTRICITY":"0.00018520","BSTAR":"-0.00303640000000","TIME_SYSTEM":"UTC","ARG_OF_PERICENTER":"36.4658","COUNTRY_CODE":"US","MEAN_ANOMALY":"191.8247","TLE_LINE1":"1 51871U 22022V   22184.91667824 -.00048286  00000-0 -30364-2 0  9998","GP_ID":"207357845","NORAD_CAT_ID":"51871","CENTER_NAME":"EARTH","MEAN_MOTION_DOT":"-0.00048286","MEAN_MOTION":"15.08837384","EPOCH":"2022-07-03T22:00:00.999936","INCLINATION":"53.2186","APOAPSIS":"541.035","MEAN_ELEMENT_THEORY":"SGP4","SEMIMAJOR_AXIS":"6917.888"}];
